[{"OBJECT_NAME":"STARLINK-1371","OBJECT_ID":"2020-025M","EPOCH":"2026-03-09T07:05:48.354720","MEAN_MOTION":15.46961272,"ECCENTRICITY":0.00020594,"INCLINATION":53.0507,"RA_OF_ASC_NODE":91.3068,"ARG_OF_PERICENTER":356.2978,"MEAN_ANOMALY":3.8013,"EPHEMERIS_TYPE":0,"CLASSIFICATION_TYPE":"U","NORAD_CAT_ID":45542,"ELEMENT_SET_NO":999,"REV_AT_EPOCH":32527,"BSTAR":0.0017316849,"MEAN_MOTION_DOT":0.00089333,"MEAN_MOTION_DDOT":0},{"OBJECT_NAME":"CZ-4B DEB","OBJECT_ID":"1999-057LT","EPOCH":"2026-03-09T05:40:33.690720","MEAN_MOTION":15.44450649,"ECCENTRICITY":0.00086655,"INCLINATION":98.1678,"RA_OF_ASC_NODE":170.1554,"ARG_OF_PERICENTER":157.0134,"MEAN_ANOMALY":265.0486,"EPHEMERIS_TYPE":0,"CLASSIFICATION_TYPE":"U","NORAD_CAT_ID":26661,"ELEMENT_SET_NO":999,"REV_AT_EPOCH":36726,"BSTAR":0.0047328441,"MEAN_MOTION_DOT":0.00225342,"MEAN_MOTION_DDOT":0}]
